{
  "type": "FeatureCollection",
  "features": [
    {
      "type": "Feature",
      "properties": {
        "norad_id": 56759,
        "name": "NVS-01 (IRNSS-1J)",
        "group": "gnss",
        "lat": -1.9132694488770872,
        "lon": -156.1999245668051,
        "alt_km": 35770.3784122006,
        "timestamp": "2025-12-24T22:42:22.275030+00:00",
        "meta_object_name": "NVS-01 (IRNSS-1J)",
        "meta_object_id": "2023-076A",
        "meta_epoch": "2025-12-24T05:09:20.795328",
        "meta_mean_motion": 1.00271582,
        "meta_eccentricity": 0.00088428,
        "meta_inclination": 2.5917,
        "meta_ra_of_asc_node": 251.191,
        "meta_arg_of_pericenter": 17.0511,
        "meta_mean_anomaly": 31.6531,
        "meta_ephemeris_type": 0,
        "meta_classification_type": "U",
        "meta_norad_cat_id": 56759,
        "meta_element_set_no": 999,
        "meta_rev_at_epoch": 936,
        "meta_bstar": 0,
        "meta_mean_motion_dot": -3.13e-06,
        "meta_mean_motion_ddot": 0,
        "tle_line1": "1 56759U 23076A   25358.21482402 -.00000313  00000+0  00000+0 0  9992",
        "tle_line2": "2 56759   2.5917 251.1910 0008842  17.0511  31.6531  1.00271582  9367"
      },
      "geometry": {
        "type": "Point",
        "coordinates": [
          -156.1999245668051,
          -1.9132694488770872
        ]
      }
    },
    {
      "type": "Feature",
      "properties": {
        "norad_id": 57517,
        "name": "COSMOS 2569 (703K)",
        "group": "gnss",
        "lat": -14.842743165261268,
        "lon": -94.45859713215606,
        "alt_km": 19132.46773677199,
        "timestamp": "2025-12-24T22:42:22.275041+00:00",
        "meta_object_name": "COSMOS 2569 (703K)",
        "meta_object_id": "2023-114A",
        "meta_epoch": "2025-12-23T18:01:56.220096",
        "meta_mean_motion": 2.13103974,
        "meta_eccentricity": 0.00109355,
        "meta_inclination": 65.1997,
        "meta_ra_of_asc_node": 78.5414,
        "meta_arg_of_pericenter": 287.1018,
        "meta_mean_anomaly": 72.827,
        "meta_ephemeris_type": 0,
        "meta_classification_type": "U",
        "meta_norad_cat_id": 57517,
        "meta_element_set_no": 999,
        "meta_rev_at_epoch": 1852,
        "meta_bstar": 0,
        "meta_mean_motion_dot": 1e-08,
        "meta_mean_motion_ddot": 0,
        "tle_line1": "1 57517U 23114A   25357.75134514  .00000001  00000+0  00000+0 0  9997",
        "tle_line2": "2 57517  65.1997  78.5414 0010935 287.1018  72.8270  2.13103974 18520"
      },
      "geometry": {
        "type": "Point",
        "coordinates": [
          -94.45859713215606,
          -14.842743165261268
        ]
      }
    },
    {
      "type": "Feature",
      "properties": {
        "norad_id": 58654,
        "name": "BEIDOU-3 M28 (C50)",
        "group": "gnss",
        "lat": 52.520805210105365,
        "lon": -175.00295105225283,
        "alt_km": 21529.784394978793,
        "timestamp": "2025-12-24T22:42:22.275052+00:00",
        "meta_object_name": "BEIDOU-3 M28 (C50)",
        "meta_object_id": "2023-207A",
        "meta_epoch": "2025-12-23T04:15:12.326400",
        "meta_mean_motion": 1.86229739,
        "meta_eccentricity": 0.00028337,
        "meta_inclination": 55.5933,
        "meta_ra_of_asc_node": 68.248,
        "meta_arg_of_pericenter": 274.486,
        "meta_mean_anomaly": 85.5342,
        "meta_ephemeris_type": 0,
        "meta_classification_type": "U",
        "meta_norad_cat_id": 58654,
        "meta_element_set_no": 999,
        "meta_rev_at_epoch": 1356,
        "meta_bstar": 0,
        "meta_mean_motion_dot": -2.8e-07,
        "meta_mean_motion_ddot": 0,
        "tle_line1": "1 58654U 23207A   25357.17722600 -.00000028  00000+0  00000+0 0  9998",
        "tle_line2": "2 58654  55.5933  68.2480 0002833 274.4860  85.5342  1.86229739 13564"
      },
      "geometry": {
        "type": "Point",
        "coordinates": [
          -175.00295105225283,
          52.520805210105365
        ]
      }
    },
    {
      "type": "Feature",
      "properties": {
        "norad_id": 58655,
        "name": "BEIDOU-3 M26 (C48)",
        "group": "gnss",
        "lat": -46.56644571753331,
        "lon": -65.51517797123851,
        "alt_km": 21522.272045030717,
        "timestamp": "2025-12-24T22:42:22.275066+00:00",
        "meta_object_name": "BEIDOU-3 M26 (C48)",
        "meta_object_id": "2023-207B",
        "meta_epoch": "2025-12-22T23:23:41.171712",
        "meta_mean_motion": 1.86231234,
        "meta_eccentricity": 0.00041871,
        "meta_inclination": 55.5951,
        "meta_ra_of_asc_node": 68.241,
        "meta_arg_of_pericenter": 260.4893,
        "meta_mean_anomaly": 99.5155,
        "meta_ephemeris_type": 0,
        "meta_classification_type": "U",
        "meta_norad_cat_id": 58655,
        "meta_element_set_no": 999,
        "meta_rev_at_epoch": 1354,
        "meta_bstar": 0,
        "meta_mean_motion_dot": -2.8e-07,
        "meta_mean_motion_ddot": 0,
        "tle_line1": "1 58655U 23207B   25356.97478208 -.00000028  00000+0  00000+0 0  9998",
        "tle_line2": "2 58655  55.5951  68.2410 0004187 260.4893  99.5155  1.86231234 13541"
      },
      "geometry": {
        "type": "Point",
        "coordinates": [
          -65.51517797123851,
          -46.56644571753331
        ]
      }
    },
    {
      "type": "Feature",
      "properties": {
        "norad_id": 59598,
        "name": "GSAT0225 (GALILEO 29)",
        "group": "gnss",
        "lat": -23.820538250343557,
        "lon": -56.05907117426945,
        "alt_km": 23219.08911691934,
        "timestamp": "2025-12-24T22:42:22.275077+00:00",
        "meta_object_name": "GSAT0225 (GALILEO 29)",
        "meta_object_id": "2024-079A",
        "meta_epoch": "2025-12-22T20:21:50.564160",
        "meta_mean_motion": 1.70474954,
        "meta_eccentricity": 0.0002219,
        "meta_inclination": 55.0069,
        "meta_ra_of_asc_node": 106.0132,
        "meta_arg_of_pericenter": 188.6953,
        "meta_mean_anomaly": 173.4251,
        "meta_ephemeris_type": 0,
        "meta_classification_type": "U",
        "meta_norad_cat_id": 59598,
        "meta_element_set_no": 999,
        "meta_rev_at_epoch": 1031,
        "meta_bstar": 0,
        "meta_mean_motion_dot": 8e-08,
        "meta_mean_motion_ddot": 0,
        "tle_line1": "1 59598U 24079A   25356.84850190  .00000008  00000+0  00000+0 0  9990",
        "tle_line2": "2 59598  55.0069 106.0132 0002219 188.6953 173.4251  1.70474954 10319"
      },
      "geometry": {
        "type": "Point",
        "coordinates": [
          -56.05907117426945,
          -23.820538250343557
        ]
      }
    },
    {
      "type": "Feature",
      "properties": {
        "norad_id": 59600,
        "name": "GSAT0227 (GALILEO 30)",
        "group": "gnss",
        "lat": 54.428793760648915,
        "lon": -152.05046870353115,
        "alt_km": 23207.91671215091,
        "timestamp": "2025-12-24T22:42:22.275088+00:00",
        "meta_object_name": "GSAT0227 (GALILEO 30)",
        "meta_object_id": "2024-079C",
        "meta_epoch": "2025-12-21T20:31:35.455872",
        "meta_mean_motion": 1.70474868,
        "meta_eccentricity": 0.00028355,
        "meta_inclination": 55.0019,
        "meta_ra_of_asc_node": 106.0394,
        "meta_arg_of_pericenter": 117.3615,
        "meta_mean_anomaly": 242.6419,
        "meta_ephemeris_type": 0,
        "meta_classification_type": "U",
        "meta_norad_cat_id": 59600,
        "meta_element_set_no": 999,
        "meta_rev_at_epoch": 1034,
        "meta_bstar": 0,
        "meta_mean_motion_dot": 4e-08,
        "meta_mean_motion_ddot": 0,
        "tle_line1": "1 59600U 24079C   25355.85527148  .00000004  00000+0  00000+0 0  9994",
        "tle_line2": "2 59600  55.0019 106.0394 0002835 117.3615 242.6419  1.70474868 10348"
      },
      "geometry": {
        "type": "Point",
        "coordinates": [
          -152.05046870353115,
          54.428793760648915
        ]
      }
    },
    {
      "type": "Feature",
      "properties": {
        "norad_id": 61182,
        "name": "GSAT0232 (GALILEO 32)",
        "group": "gnss",
        "lat": -49.911298243691796,
        "lon": 170.53535926065922,
        "alt_km": 23227.637017352372,
        "timestamp": "2025-12-24T22:42:22.275099+00:00",
        "meta_object_name": "GSAT0232 (GALILEO 32)",
        "meta_object_id": "2024-167A",
        "meta_epoch": "2025-12-24T00:50:29.347296",
        "meta_mean_motion": 1.70473519,
        "meta_eccentricity": 0.00018846,
        "meta_inclination": 55.2377,
        "meta_ra_of_asc_node": 226.1209,
        "meta_arg_of_pericenter": 202.8668,
        "meta_mean_anomaly": 249.4196,
        "meta_ephemeris_type": 0,
        "meta_classification_type": "U",
        "meta_norad_cat_id": 61182,
        "meta_element_set_no": 999,
        "meta_rev_at_epoch": 789,
        "meta_bstar": 0,
        "meta_mean_motion_dot": 7.2e-07,
        "meta_mean_motion_ddot": 0,
        "tle_line1": "1 61182U 24167A   25358.03506189  .00000072  00000+0  00000+0 0  9990",
        "tle_line2": "2 61182  55.2377 226.1209 0001884 202.8668 249.4196  1.70473519  7890"
      },
      "geometry": {
        "type": "Point",
        "coordinates": [
          170.53535926065922,
          -49.911298243691796
        ]
      }
    }
  ]
}